ONEWEB-0403             
1 50483U 21132Q   24225.63699431 -.00000279  00000+0 -74137-3 0  9999
2 50483  87.9115 109.5501 0002001  73.3460 286.7892 13.18685217132820
ONEWEB-0404             
1 50484U 21132R   24225.55472071  .00000412  00000+0  11274-2 0  9999
2 50484  87.9004 155.1770 0002448  77.5764 282.5638 13.11417118127407
ONEWEB-0405             
1 50485U 21132S   24225.42516817 -.00000424  00000+0 -11077-2 0  9999
2 50485  87.9113 109.5815 0001967  66.3082 293.8256 13.18685030133197
ONEWEB-0406             
1 50486U 21132T   24225.41410763  .00000080  00000+0  17049-3 0  9994
2 50486  87.9120 109.5968 0002343  91.0123 269.1277 13.18688336132825
ONEWEB-0407             
1 50487U 21132U   24225.63541561  .00000091  00000+0  19868-3 0  9993
2 50487  87.9114 109.5521 0001939  71.4084 288.7259 13.18687819132790
ONEWEB-0409             
1 50488U 21132V   24225.55302548  .00000278  00000+0  74918-3 0  9999
2 50488  87.8994 155.1690 0002341  84.3480 275.7915 13.11418487127291
ONEWEB-0412             
1 50489U 21132W   24225.39673068  .00000072  00000+0  14898-3 0  9993
2 50489  87.9119 109.6018 0001910  61.6204 298.5121 13.18686829132857
ONEWEB-0413             
1 50490U 21132X   24225.62909283  .00000058  00000+0  11498-3 0  9999
2 50490  87.9118 109.5682 0001698  64.1102 296.0205 13.18688143132826
